{
"type": "FeatureCollection",
"name": "historical",
"crs": { "type": "name", "properties": { "name": "urn:ogc:def:crs:OGC:1.3:CRS84" } },
"features": [
{ "type": "Feature", "properties": { "fid": 1, "name": "Pissana", "map": null, "type": null, "descrizione": "Nel 1746 questa non è una sovranità autonoma, ma una macro-area storica-amministrativa interna al Granducato di Toscana: la cosiddetta Provincia pisana, cioè l’insieme delle terre già legate alla Repubblica di Pisa e poi inglobate nello Stato fiorentino (e quindi nel Granducato). Nelle descrizioni d’età moderna la Provincia pisana è spesso distinta dal “contado” fiorentino: ha un proprio assetto di capitanati/vicariati e, pur essendo parte integrante dello Stato fiorentino, mantiene una fisionomia territoriale riconoscibile nelle ripartizioni precedenti alle grandi riforme tardo-settecentesche/ottocentesche.", "wikipedia": "https://it.wikipedia.org/wiki/Granducato_di_Toscana#Confini_e_ripartizione_amministrativa\n" }, "geometry": { "type": "Polygon", "coordinates": [ [ [ 10.26255383063247, 43.807098161061859 ], [ 10.285011357746926, 43.809785386528546 ], [ 10.301710544575624, 43.803835101566598 ], [ 10.319753344137665, 43.794429812433194 ], [ 10.402481499576389, 43.80719413339996 ], [ 10.413518318457426, 43.817751090590512 ], [ 10.420140409786047, 43.81698331188575 ], [ 10.455818126473226, 43.775931144265208 ], [ 10.436143797163551, 43.762782933946063 ], [ 10.44593297564934, 43.756256814955535 ], [ 10.462920079492326, 43.762590989269867 ], [ 10.508219023073622, 43.783512958974768 ], [ 10.550446851835845, 43.781209622860466 ], [ 10.57079298751219, 43.761439321212698 ], [ 10.580590280691153, 43.753403339167029 ], [ 10.604959139874357, 43.733415398488674 ], [ 10.608127890194709, 43.728000834834482 ], [ 10.61484429069824, 43.716524266983789 ], [ 10.616572009531364, 43.709891415371565 ], [ 10.623193884112588, 43.684469506059727 ], [ 10.637781679503176, 43.667770319231025 ], [ 10.697476473798867, 43.628997494640259 ], [ 10.789801863047186, 43.610954695078206 ], [ 10.946362552369026, 43.433168129820118 ], [ 10.967013105202657, 43.412976264297605 ], [ 10.985969322115341, 43.394441100333701 ], [ 10.496894287178298, 43.293094311304358 ], [ 10.461960356111367, 43.317663229856926 ], [ 10.45620201582561, 43.331099357190361 ], [ 10.455050347768459, 43.341848259057109 ], [ 10.449675896835084, 43.352213271571472 ], [ 10.44622089266363, 43.353748828981004 ], [ 10.443149777844559, 43.360658837323918 ], [ 10.440078663025488, 43.367184956314439 ], [ 10.440462552377872, 43.372175517895428 ], [ 10.436239769501649, 43.378317747533572 ], [ 10.432400875977811, 43.381772751705029 ], [ 10.429329761158739, 43.386763313286018 ], [ 10.426450591015861, 43.391945819543196 ], [ 10.422035863463446, 43.400199440619446 ], [ 10.419348637996759, 43.402310832057559 ], [ 10.415509744472921, 43.402886666086133 ], [ 10.411286961596698, 43.401734998028985 ], [ 10.406680289368092, 43.400199440619446 ], [ 10.402841395844252, 43.399815551267068 ], [ 10.405912510663324, 43.405765836229016 ], [ 10.407064178720475, 43.409028895724276 ], [ 10.40456889792998, 43.409988619105235 ], [ 10.402457506491869, 43.412675844571922 ], [ 10.401497783110909, 43.418626129533877 ], [ 10.400154170377565, 43.424768359172013 ], [ 10.391708604625121, 43.429183086724429 ], [ 10.386142209015555, 43.435325316362572 ], [ 10.382879149520292, 43.443386992762633 ], [ 10.379040255996454, 43.448569499019818 ], [ 10.375969141177382, 43.449145333048392 ], [ 10.370978579596391, 43.453752005276996 ], [ 10.3675122, 43.4588657 ], [ 10.361573290462987, 43.458358677505601 ], [ 10.344874103634289, 43.464500907143744 ], [ 10.336236593205653, 43.467955911315201 ], [ 10.329326584862743, 43.475057864334303 ], [ 10.33105408694847, 43.481775928001021 ], [ 10.318385738319803, 43.50384956576309 ], [ 10.31416295544358, 43.518821250506065 ], [ 10.302070440843488, 43.530145986401386 ], [ 10.29631210055773, 43.534752658629991 ], [ 10.296120155881539, 43.557594075096837 ], [ 10.294200709119618, 43.574677151277918 ], [ 10.28652292207194, 43.611914418459158 ], [ 10.284603475310021, 43.643201400678443 ], [ 10.270015679919434, 43.675640050954883 ], [ 10.280956526462374, 43.68350978267874 ], [ 10.282875973224293, 43.68773256555496 ], [ 10.276541798909959, 43.719019547774245 ], [ 10.278845135024262, 43.722282607269506 ], [ 10.275582075529, 43.733031509136254 ], [ 10.279037079700455, 43.735142900574367 ], [ 10.26255383063247, 43.807098161061859 ] ] ] } },
{ "type": "Feature", "properties": { "fid": 2, "name": "Granducato di Toscana", "map": null, "type": null, "descrizione": "Nel 1746 il Granducato di Toscana è un grande Stato dell’Italia centrale con capitale Firenze, passato da poco dai Medici ai Lorena (1737). La macchina amministrativa è stratificata: “Stato fiorentino” (Ducato Vecchio), “Stato senese” (Ducato Nuovo) e la Provincia pisana come parte integrante dello Stato fiorentino; inoltre esistono aree particolari/exclavi e comparti con storia propria (ad esempio la Versilia medicea). Questo assetto “a incastri” è proprio ciò che rende così interessanti le carte di metà Settecento: confini politici e giurisdizioni non sono ancora “provinciali” in senso moderno, ma risultano da secoli di acquisizioni, patti e lodi.", "wikipedia": "https://it.wikipedia.org/wiki/Granducato_di_Toscana\n" }, "geometry": { "type": "Polygon", "coordinates": [ [ [ 10.967013105202657, 43.412976264297605 ], [ 11.2261115, 43.4542786 ], [ 11.520565051197183, 43.582645046404608 ], [ 11.4679836, 43.6521583 ], [ 11.467588320568211, 43.709328532691281 ], [ 11.4690086, 43.775279 ], [ 11.5108359, 43.8338972 ], [ 11.537456182702073, 43.871713728749647 ], [ 11.527858948892476, 43.899353762121287 ], [ 11.556266760968882, 44.037937818331869 ], [ 11.630069488964681, 44.290441039862351 ], [ 11.601853621564466, 44.288521593100448 ], [ 11.541582993240198, 44.26740767871933 ], [ 11.404150605086777, 44.214239003414178 ], [ 11.323149951733781, 44.186982859394924 ], [ 11.257888761828525, 44.178345348966303 ], [ 11.239318114406954, 44.173402773554329 ], [ 10.7757982, 44.1219779 ], [ 10.801186068136477, 44.078869345528283 ], [ 10.678839659926515, 43.907175507676136 ], [ 10.675768545107445, 43.880303253009266 ], [ 10.601461962336643, 43.784930742026418 ], [ 10.607604191974783, 43.77792476134541 ], [ 10.625359074522537, 43.761225574516715 ], [ 10.616572009531364, 43.709891415371565 ], [ 10.623193884112588, 43.684469506059727 ], [ 10.637781679503176, 43.667770319231025 ], [ 10.697476473798867, 43.628997494640259 ], [ 10.789801863047186, 43.610954695078206 ], [ 10.8760946, 43.5141698 ], [ 10.946362552369026, 43.433168129820118 ], [ 10.967013105202657, 43.412976264297605 ] ] ] } },
{ "type": "Feature", "properties": { "fid": 3, "name": "Genova", "map": null, "type": null, "descrizione": "Nel 1746 Genova è ancora una repubblica aristocratica di lunghissima durata, con una storia di potenza marittima e finanziaria. In pieno Settecento però vive una fase più fragile sul piano geopolitico: le grandi potenze condizionano sempre di più l’equilibrio ligure. Proprio il 5 dicembre 1746 scoppia la celebre rivolta di Genova (quartiere di Portoria) contro le truppe austriache durante la guerra di successione austriaca: l’insurrezione porta alla liberazione della città dopo giorni di combattimenti, episodio entrato nella memoria anche per la tradizione legata a “Balilla”", "wikipedia": "https://it.wikipedia.org/wiki/Repubblica_di_Genova\n" }, "geometry": { "type": "Polygon", "coordinates": [ [ [ 10.079705183566626, 44.125485885649034 ], [ 10.072600738269051, 44.111355057050751 ], [ 10.070432898834772, 44.092227062042419 ], [ 10.021815426536714, 44.042932772849106 ], [ 10.019106112229066, 44.04510843433858 ], [ 9.999978117220733, 44.049189073273688 ], [ 9.989266440016067, 44.042813074937577 ], [ 9.972688844342178, 44.034651797067355 ], [ 9.914539739516844, 44.06525658908069 ], [ 9.853585195423625, 44.053524752142245 ], [ 9.85562551489118, 44.045108434338573 ], [ 9.853585195423625, 44.0417929152038 ], [ 9.846699117220625, 44.032866517533243 ], [ 9.696034276538326, 44.179514479263794 ], [ 9.949671490348821, 44.276557173939395 ], [ 9.9475128, 44.2654526 ], [ 9.903764302328824, 44.253986139829557 ], [ 9.869843991180712, 44.21649526961324 ], [ 9.931946214974433, 44.17007800172636 ], [ 9.95764148826896, 44.124935933506684 ], [ 9.9921961, 44.1006027 ], [ 10.072154418385516, 44.126721213040796 ], [ 10.079705183566626, 44.125485885649034 ] ] ] } },
{ "type": "Feature", "properties": { "fid": 4, "name": "Lucchese", "map": null, "type": null, "descrizione": "Montignoso, che per secoli rimase un possesso lucchese anche quando l’area di Pietrasanta passò ai Fiorentini: di fatto Montignoso divenne un’exclave della Repubblica di Lucca “incastrata” tra Versilia toscana e area massese. Nel Settecento Lucca cura fortificazioni e controllo del punto perché è un nodo sensibile di confine tra giurisdizioni ravvicinatissime.", "wikipedia": "https://it.wikipedia.org/wiki/Montignoso\n" }, "geometry": { "type": "Polygon", "coordinates": [ [ [ 10.187325183384967, 44.038530383226679 ], [ 10.200302053149011, 44.027827810225403 ], [ 10.13723977320404, 43.980796561285409 ], [ 10.12475640465844, 43.98944596886431 ], [ 10.187325183384967, 44.038530383226679 ] ] ] } },
{ "type": "Feature", "properties": { "fid": 5, "name": "non_nominato", "map": null, "type": null, "descrizione": "Versilia medicea, area storicamente definita come Capitanato di Pietrasanta (Pietrasanta + Seravezza + Stazzema, con l’area costiera oggi legata a Forte dei Marmi). Questa zona viene separata dai domini lucchesi e annessa a Firenze con il Lodo di papa Leone X (1513); nel 1746 è quindi territorio toscano ma “a enclave” rispetto ai vicini (Lucca/Montignoso e Massa). È un tratto di costa e retroterra apuano con enorme valore strategico (confine, vie di transito, risorse del territorio) e per questo ricorre spesso nelle descrizioni storiche dei confini versiliesi.", "wikipedia": "https://it.wikipedia.org/wiki/Versilia\n" }, "geometry": { "type": "Polygon", "coordinates": [ [ [ 10.200302053149011, 44.027827810225403 ], [ 10.187325183384967, 44.038530383226679 ], [ 10.240858441751739, 44.080508938302401 ], [ 10.255516116420649, 44.069005933772203 ], [ 10.308066356821623, 44.027765718864359 ], [ 10.352188265307515, 43.98364381037846 ], [ 10.219567499916403, 43.897185272940789 ], [ 10.199929425041178, 43.92141406661802 ], [ 10.147901278618512, 43.971911973440015 ], [ 10.13723977320404, 43.980796561285409 ], [ 10.200302053149011, 44.027827810225403 ] ] ] } },
{ "type": "Feature", "properties": { "fid": 6, "name": "Ducato di Massa", "map": null, "type": null, "descrizione": "Nel 1746 questa è una piccola ma importantissima sovranità dell’Italia preunitaria, centrata su Massa e Carrara, celebre in Europa soprattutto per il marmo e per la posizione strategica sul margine tra costa e Apuane. È uno “stato-cuscinetto” tra realtà maggiori (Toscana, Lucca, influenza genovese/ligure) e, proprio per le dimensioni ridotte, vive di equilibrio diplomatico, controllo dei passaggi e valorizzazione delle risorse. La sua storia istituzionale come “ducato/principato” è ben definita nelle cronologie moderne.", "wikipedia": "https://it.wikipedia.org/wiki/Ducato_di_Massa_e_Principato_di_Carrara\n" }, "geometry": { "type": "Polygon", "coordinates": [ [ [ 10.021815426536714, 44.042932772849106 ], [ 10.070432898834772, 44.092227062042419 ], [ 10.072600738269051, 44.111355057050751 ], [ 10.079705183566626, 44.125485885649034 ], [ 10.210896142179292, 44.10402265896424 ], [ 10.240858441751739, 44.080508938302401 ], [ 10.187325183384967, 44.038530383226679 ], [ 10.12475640465844, 43.98944596886431 ], [ 10.113980967470411, 43.996969646900908 ], [ 10.05302642337718, 44.03057115813224 ], [ 10.047670584774844, 44.030826198065689 ], [ 10.041804666305621, 44.025470359463355 ], [ 10.035938747836401, 44.031591317866024 ], [ 10.021815426536714, 44.042932772849106 ] ] ] } },
{ "type": "Feature", "properties": { "fid": 7, "name": "Stato della Repubblica di Lucca", "map": null, "type": null, "descrizione": "Nel 1746 Lucca è una delle repubbliche oligarchiche più longeve d’Italia: uno Stato indipendente con un territorio non enorme ma molto articolato. Oltre alla pianura intorno alla capitale e alla media valle del Serchio, include porzioni di Garfagnana e una fascia costiera sul Mar Ligure; soprattutto, e questo è cruciale per la tua carta, comprende anche l’exclave di Montignoso. Il confine lucchese in Versilia è un mosaico: a pochi chilometri convivono domini lucchesi e domini toscani (Capitanato di Pietrasanta), più l’area massese. Questo “incastro” spiega bene perché in una mappa del 1746 i poligoni siano così spezzettati e perché la micro-geopolitica locale conti tantissimo.", "wikipedia": "https://it.wikipedia.org/wiki/Repubblica_di_Lucca\n" }, "geometry": { "type": "Polygon", "coordinates": [ [ [ 10.7757982, 44.1219779 ], [ 10.801186068136477, 44.078869345528283 ], [ 10.678839659926515, 43.907175507676136 ], [ 10.675768545107445, 43.880303253009266 ], [ 10.601461962336643, 43.784930742026418 ], [ 10.607604191974783, 43.77792476134541 ], [ 10.625359074522537, 43.761225574516715 ], [ 10.61484429069824, 43.716524266983789 ], [ 10.608127890194709, 43.728000834834482 ], [ 10.608127890194707, 43.728000834834482 ], [ 10.604959139874357, 43.733415398488674 ], [ 10.580590280691153, 43.753403339167029 ], [ 10.550446851835845, 43.781209622860466 ], [ 10.508219023073622, 43.783512958974768 ], [ 10.44593297564934, 43.756256814955535 ], [ 10.436143797163551, 43.762782933946063 ], [ 10.455818126473226, 43.775931144265208 ], [ 10.420140409786047, 43.81698331188575 ], [ 10.413518318457426, 43.817751090590512 ], [ 10.402481499576389, 43.80719413339996 ], [ 10.319753344137665, 43.794429812433194 ], [ 10.301710544575624, 43.803835101566598 ], [ 10.285011357746926, 43.809785386528546 ], [ 10.26255383063247, 43.807098161061859 ], [ 10.219567499916403, 43.897185272940789 ], [ 10.352188265307515, 43.98364381037846 ], [ 10.7757982, 44.1219779 ] ] ] } }
]
}
